[{"OBJECT_NAME":"TK-2","OBJECT_ID":"2022-031A","EPOCH":"2026-03-09T22:51:17.143200","MEAN_MOTION":15.02943491,"ECCENTRICITY":0.00164117,"INCLINATION":97.8366,"RA_OF_ASC_NODE":263.9365,"ARG_OF_PERICENTER":100.3205,"MEAN_ANOMALY":259.9871,"EPHEMERIS_TYPE":0,"CLASSIFICATION_TYPE":"U","NORAD_CAT_ID":52150,"ELEMENT_SET_NO":999,"REV_AT_EPOCH":21555,"BSTAR":0.00040164474,"MEAN_MOTION_DOT":5.349e-5,"MEAN_MOTION_DDOT":0},{"OBJECT_NAME":"STARLINK-5394","OBJECT_ID":"2022-177L","EPOCH":"2026-03-09T04:51:00.917280","MEAN_MOTION":15.02532554,"ECCENTRICITY":0.00011629,"INCLINATION":43.0022,"RA_OF_ASC_NODE":135.8367,"ARG_OF_PERICENTER":261.6756,"MEAN_ANOMALY":98.3955,"EPHEMERIS_TYPE":0,"CLASSIFICATION_TYPE":"U","NORAD_CAT_ID":54830,"ELEMENT_SET_NO":999,"REV_AT_EPOCH":17688,"BSTAR":-4.592999e-6,"MEAN_MOTION_DOT":-2.66e-6,"MEAN_MOTION_DDOT":0}]
